GLOBALSTAR M023         
1 25621U 99004A   25223.05859432 -.00000094  00000+0  54172-4 0  9994
2 25621  52.0092 246.3579 0010069 246.8760 157.0815 12.62501764222660
GLOBALSTAR M040         
1 25622U 99004B   25223.13369811 -.00000036  00000+0  37812-3 0  9998
2 25622  51.9899 250.3665 0001028 151.1269 248.9486 12.62014999222193
GLOBALSTAR M036         
1 25623U 99004C   25223.06861277 -.00000045  00000+0  54407-3 0  9993
2 25623  51.9966  95.6653 0010992 152.2124 356.4929 11.86605983185490
GLOBALSTAR M038         
1 25624U 99004D   25223.07169955 -.00000064  00000+0  25665-3 0  9994
2 25624  51.9966 273.5137 0002135 164.8678 225.1643 12.32530376209147
GLOBALSTAR M022         
1 25649U 99012A   25223.03023118 -.00000053  00000+0  40934-3 0  9990
2 25649  52.0032 141.8128 0002367 294.7146 179.9747 12.02502335182970
GLOBALSTAR M041         
1 25650U 99012B   25223.17871252 -.00000065  00000+0  26359-3 0  9995
2 25650  52.0039  24.5379 0002320  74.1501 285.9591 11.96681193184865
GLOBALSTAR M046         
1 25651U 99012C   25222.88044192 -.00000150  00000+0 -67617-3 0  9996
2 25651  52.0055  90.3578 0002560  19.2315 354.6497 12.09412398190281
GLOBALSTAR M037         
1 25652U 99012D   25223.14720394 -.00000106  00000+0 -13095-4 0  9995
2 25652  52.0024  16.6858 0001412 330.7491 201.4331 12.62449284218214
